[{"OBJECT_NAME":"LYNK TOWER 3","OBJECT_ID":"2023-001AP","EPOCH":"2026-03-09T16:30:02.373408","MEAN_MOTION":15.34026505,"ECCENTRICITY":0.00098594,"INCLINATION":97.3321,"RA_OF_ASC_NODE":129.5399,"ARG_OF_PERICENTER":112.8813,"MEAN_ANOMALY":247.3472,"EPHEMERIS_TYPE":0,"CLASSIFICATION_TYPE":"U","NORAD_CAT_ID":55046,"ELEMENT_SET_NO":999,"REV_AT_EPOCH":17664,"BSTAR":0.00042323634,"MEAN_MOTION_DOT":0.00013886,"MEAN_MOTION_DDOT":0},{"OBJECT_NAME":"STARLINK-34727","OBJECT_ID":"2025-161L","EPOCH":"2026-03-09T21:16:53.775264","MEAN_MOTION":15.30191467,"ECCENTRICITY":0.00011386,"INCLINATION":53.1584,"RA_OF_ASC_NODE":293.0315,"ARG_OF_PERICENTER":82.1949,"MEAN_ANOMALY":277.9181,"EPHEMERIS_TYPE":0,"CLASSIFICATION_TYPE":"U","NORAD_CAT_ID":65025,"ELEMENT_SET_NO":999,"REV_AT_EPOCH":3538,"BSTAR":0.00045058397,"MEAN_MOTION_DOT":0.00013006,"MEAN_MOTION_DDOT":0}]
